ONEWEB-0196             
1 48218U 21031J   25291.84754893 -.00000209  00000+0 -59847-3 0  9995
2 48218  87.9037 337.7856 0002036  96.6200 263.5161 13.14502864216526
ONEWEB-0183             
1 48219U 21031K   25291.82218594  .00000269  00000+0  68978-3 0  9996
2 48219  87.9025 337.7987 0001789  90.5265 269.6070 13.14502896216618
ONEWEB-0185             
1 48220U 21031L   25291.84833413 -.00000211  00000+0 -60313-3 0  9997
2 48220  87.9035 337.7619 0002063  86.1725 273.9640 13.14501002216542
ONEWEB-0187             
1 48221U 21031M   25291.90450681  .00000144  00000+0  35422-3 0  9993
2 48221  87.9034 337.7970 0002108  92.3426 267.7945 13.14503764216567
ONEWEB-0192             
1 48222U 21031N   25291.95063350  .00000111  00000+0  26619-3 0  9994
2 48222  87.9027 337.7800 0001963  99.2740 260.8612 13.14502394216489
ONEWEB-0219             
1 48223U 21031P   25291.85389600 -.00000272  00000+0 -76913-3 0  9995
2 48223  87.9036 337.7726 0002051  91.1874 268.9491 13.14502151216671
ONEWEB-0202             
1 48224U 21031Q   25291.83487740  .00000044  00000+0  84856-4 0  9999
2 48224  87.9030 337.7907 0002554 105.7016 254.4396 13.14501819216657
ONEWEB-0204             
1 48225U 21031R   25291.86895596 -.00000047  00000+0 -16093-3 0  9997
2 48225  87.9028 337.7720 0001702  89.0326 271.0999 13.14502889216551
